start=new Date('2023-04-14T00:00:00.000Z').valueOf();
sats=[{"REV_AT_EPOCH":"3242","GP_ID":"230026753","SEMIMAJOR_AXIS":"6917.858","MEAN_ANOMALY":"266.2401","TIME_SYSTEM":"UTC","TLE_LINE2":"2 53856  53.2167   6.3829 0001414  93.8753 266.2401 15.08847333 32420","OBJECT_ID":"2022-114AQ","DECAY_DATE":null,"ECCENTRICITY":"0.00014140","REF_FRAME":"TEME","APOAPSIS":"540.701","CLASSIFICATION_TYPE":"U","SITE":"AFETR","LAUNCH_DATE":"2022-09-19","NORAD_CAT_ID":"53856","EPOCH":"2023-04-13T20:58:30.991584","OBJECT_NAME":"STARLINK-4795","PERIOD":"95.437","MEAN_MOTION_DOT":"0.00003756","INCLINATION":"53.2167","OBJECT_TYPE":"PAYLOAD","FILE":"3886949","CENTER_NAME":"EARTH","COUNTRY_CODE":"US","ELEMENT_SET_NO":"999","RA_OF_ASC_NODE":"6.3829","BSTAR":"0.00025392000000","MEAN_ELEMENT_THEORY":"SGP4","RCS_SIZE":"LARGE","TLE_LINE1":"1 53856U 22114AQ  23103.87396981  .00003756  00000-0  25392-3 0  9992","MEAN_MOTION":"15.08847333","PERIAPSIS":"538.745","ARG_OF_PERICENTER":"93.8753","EPHEMERIS_TYPE":"0","MEAN_MOTION_DDOT":"0.0000000000000"},{"OBJECT_NAME":"STARLINK-4809","EPOCH":"2023-04-13T11:56:35.175840","NORAD_CAT_ID":"53857","LAUNCH_DATE":"2022-09-19","SITE":"AFETR","CLASSIFICATION_TYPE":"U","APOAPSIS":"540.627","REF_FRAME":"TEME","ECCENTRICITY":"0.00012890","DECAY_DATE":null,"OBJECT_ID":"2022-114AR","TLE_LINE2":"2 53857  53.2185  17.5713 0001289  87.6611 272.4529 15.08843369 32235","TIME_SYSTEM":"UTC","MEAN_ANOMALY":"272.4529","SEMIMAJOR_AXIS":"6917.870","GP_ID":"230026265","REV_AT_EPOCH":"3223","MEAN_MOTION_DDOT":"0.0000000000000","ARG_OF_PERICENTER":"87.6611","EPHEMERIS_TYPE":"0","PERIAPSIS":"538.843","TLE_LINE1":"1 53857U 22114AR  23103.49762935  .00003943  00000-0  26569-3 0  9992","MEAN_MOTION":"15.08843369","RCS_SIZE":"LARGE","MEAN_ELEMENT_THEORY":"SGP4","BSTAR":"0.00026569000000","RA_OF_ASC_NODE":"17.5713","ELEMENT_SET_NO":"999","COUNTRY_CODE":"US","CENTER_NAME":"EARTH","FILE":"3886941","OBJECT_TYPE":"PAYLOAD","INCLINATION":"53.2185","MEAN_MOTION_DOT":"0.00003943","PERIOD":"95.437"},{"NORAD_CAT_ID":"53858","EPOCH":"2023-04-13T03:45:11.272608","CLASSIFICATION_TYPE":"U","LAUNCH_DATE":"2022-09-19","SITE":"AFETR","OBJECT_NAME":"STARLINK-4798","OBJECT_ID":"2022-114AS","TLE_LINE2":"2 53858  53.2174   9.7254 0001252  81.3340 278.7794 15.08845367 32858","DECAY_DATE":null,"GP_ID":"230016174","REV_AT_EPOCH":"3285","SEMIMAJOR_AXIS":"6917.864","MEAN_ANOMALY":"278.7794","TIME_SYSTEM":"UTC","APOAPSIS":"540.595","ECCENTRICITY":"0.00012520","REF_FRAME":"TEME","RCS_SIZE":"LARGE","TLE_LINE1":"1 53858U 22114AS  23103.15638047  .00000323  00000-0  38380-4 0  9996","MEAN_MOTION":"15.08845367","PERIAPSIS":"538.863","EPHEMERIS_TYPE":"0","ARG_OF_PERICENTER":"81.3340","MEAN_MOTION_DDOT":"0.0000000000000","OBJECT_TYPE":"PAYLOAD","FILE":"3886564","PERIOD":"95.437","MEAN_MOTION_DOT":"0.00000323","INCLINATION":"53.2174","BSTAR":"0.00003838000000","MEAN_ELEMENT_THEORY":"SGP4","CENTER_NAME":"EARTH","COUNTRY_CODE":"US","ELEMENT_SET_NO":"999","RA_OF_ASC_NODE":"9.7254"},{"RA_OF_ASC_NODE":"12.6424","ELEMENT_SET_NO":"999","COUNTRY_CODE":"US","CENTER_NAME":"EARTH","MEAN_ELEMENT_THEORY":"SGP4","BSTAR":"-0.00025701000000","INCLINATION":"53.2176","MEAN_MOTION_DOT":"-0.00004375","PERIOD":"95.438","FILE":"3886564","OBJECT_TYPE":"PAYLOAD","MEAN_MOTION_DDOT":"0.0000000000000","EPHEMERIS_TYPE":"0","ARG_OF_PERICENTER":"92.3468","PERIAPSIS":"538.783","TLE_LINE1":"1 53859U 22114AT  23103.50001157 -.00004375  00000-0 -25701-3 0  9997","RCS_SIZE":"LARGE","MEAN_MOTION":"15.08834572","REF_FRAME":"TEME","ECCENTRICITY":"0.00014150","APOAPSIS":"540.741","TIME_SYSTEM":"UTC","MEAN_ANOMALY":"248.1784","SEMIMAJOR_AXIS":"6917.897","REV_AT_EPOCH":"130","GP_ID":"230016425","DECAY_DATE":null,"OBJECT_ID":"2022-114AT","TLE_LINE2":"2 53859  53.2176  12.6424 0001415  92.3468 248.1784 15.08834572  1309","OBJECT_NAME":"STARLINK-4790","LAUNCH_DATE":"2022-09-19","SITE":"AFETR","CLASSIFICATION_TYPE":"U","EPOCH":"2023-04-13T12:00:00.999648","NORAD_CAT_ID":"53859"},{"MEAN_MOTION_DDOT":"0.0000000000000","EPHEMERIS_TYPE":"0","ARG_OF_PERICENTER":"88.1928","PERIAPSIS":"538.859","TLE_LINE1":"1 53860U 22114AU  23103.14901453  .00001090  00000-0  86572-4 0  9990","MEAN_MOTION":"15.08841524","RCS_SIZE":"LARGE","MEAN_ELEMENT_THEORY":"SGP4","BSTAR":"0.00008657200000","RA_OF_ASC_NODE":"9.6776","ELEMENT_SET_NO":"999","COUNTRY_CODE":"US","CENTER_NAME":"EARTH","FILE":"3886564","OBJECT_TYPE":"PAYLOAD","INCLINATION":"53.2169","MEAN_MOTION_DOT":"0.00001090","PERIOD":"95.437","OBJECT_NAME":"STARLINK-4799","EPOCH":"2023-04-13T03:34:34.855392","NORAD_CAT_ID":"53860","SITE":"AFETR","LAUNCH_DATE":"2022-09-19","CLASSIFICATION_TYPE":"U","APOAPSIS":"540.623","REF_FRAME":"TEME","ECCENTRICITY":"0.00012750","DECAY_DATE":null,"TLE_LINE2":"2 53860  53.2169   9.6776 0001275  88.1928 271.9210 15.08841524 32618","OBJECT_ID":"2022-114AU","TIME_SYSTEM":"UTC","MEAN_ANOMALY":"271.9210","SEMIMAJOR_AXIS":"6917.876","REV_AT_EPOCH":"3261","GP_ID":"230017174"},{"OBJECT_NAME":"STARLINK-4781","NORAD_CAT_ID":"53861","EPOCH":"2023-04-13T03:39:53.412192","CLASSIFICATION_TYPE":"U","LAUNCH_DATE":"2022-09-19","SITE":"AFETR","APOAPSIS":"540.431","ECCENTRICITY":"0.00009950","REF_FRAME":"TEME","OBJECT_ID":"2022-114AV","TLE_LINE2":"2 53861  53.2173   9.7015 0000995  83.2739 276.8366 15.08840827 32852","DECAY_DATE":null,"REV_AT_EPOCH":"3285","GP_ID":"230015924","SEMIMAJOR_AXIS":"6917.878","MEAN_ANOMALY":"276.8366","TIME_SYSTEM":"UTC","EPHEMERIS_TYPE":"0","ARG_OF_PERICENTER":"83.2739","MEAN_MOTION_DDOT":"0.0000000000000","TLE_LINE1":"1 53861U 22114AV  23103.15270153  .00011264  00000-0  72467-3 0  9999","RCS_SIZE":"LARGE","MEAN_MOTION":"15.08840827","PERIAPSIS":"539.055","BSTAR":"0.00072467000000","MEAN_ELEMENT_THEORY":"SGP4","CENTER_NAME":"EARTH","COUNTRY_CODE":"US","ELEMENT_SET_NO":"999","RA_OF_ASC_NODE":"9.7015","OBJECT_TYPE":"PAYLOAD","FILE":"3886564","PERIOD":"95.438","MEAN_MOTION_DOT":"0.00011264","INCLINATION":"53.2173"},{"OBJECT_NAME":"STARLINK-4792","EPOCH":"2023-04-13T03:23:58.026048","NORAD_CAT_ID":"53862","SITE":"AFETR","LAUNCH_DATE":"2022-09-19","CLASSIFICATION_TYPE":"U","APOAPSIS":"540.738","REF_FRAME":"TEME","ECCENTRICITY":"0.00015100","DECAY_DATE":null,"OBJECT_ID":"2022-114AW","TLE_LINE2":"2 53862  53.2175   9.6329 0001510  88.0597 272.0568 15.08856917 32850","TIME_SYSTEM":"UTC","MEAN_ANOMALY":"272.0568","SEMIMAJOR_AXIS":"6917.829","REV_AT_EPOCH":"3285","GP_ID":"230015674","MEAN_MOTION_DDOT":"0.0000000000000","EPHEMERIS_TYPE":"0","ARG_OF_PERICENTER":"88.0597","PERIAPSIS":"538.649","RCS_SIZE":"LARGE","TLE_LINE1":"1 53862U 22114AW  23103.14164382  .00012853  00000-0  82382-3 0  9997","MEAN_MOTION":"15.08856917","MEAN_ELEMENT_THEORY":"SGP4","BSTAR":"0.00082382000000","RA_OF_ASC_NODE":"9.6329","ELEMENT_SET_NO":"999","COUNTRY_CODE":"US","CENTER_NAME":"EARTH","FILE":"3886564","OBJECT_TYPE":"PAYLOAD","INCLINATION":"53.2175","MEAN_MOTION_DOT":"0.00012853","PERIOD":"95.436"},{"INCLINATION":"53.2167","MEAN_MOTION_DOT":"0.00002342","PERIOD":"95.437","FILE":"3886942","OBJECT_TYPE":"PAYLOAD","RA_OF_ASC_NODE":"9.6856","ELEMENT_SET_NO":"999","COUNTRY_CODE":"US","CENTER_NAME":"EARTH","MEAN_ELEMENT_THEORY":"SGP4","BSTAR":"0.00016517000000","PERIAPSIS":"538.935","RCS_SIZE":"LARGE","TLE_LINE1":"1 53863U 22114AX  23103.14997005  .00002342  00000-0  16517-3 0  9993","MEAN_MOTION":"15.08847392","MEAN_MOTION_DDOT":"0.0000000000000","ARG_OF_PERICENTER":"85.2786","EPHEMERIS_TYPE":"0","TIME_SYSTEM":"UTC","MEAN_ANOMALY":"274.8336","SEMIMAJOR_AXIS":"6917.858","GP_ID":"230026273","REV_AT_EPOCH":"3231","DECAY_DATE":null,"OBJECT_ID":"2022-114AX","TLE_LINE2":"2 53863  53.2167   9.6856 0001139  85.2786 274.8336 15.08847392 32314","REF_FRAME":"TEME","ECCENTRICITY":"0.00011390","APOAPSIS":"540.511","SITE":"AFETR","LAUNCH_DATE":"2022-09-19","CLASSIFICATION_TYPE":"U","EPOCH":"2023-04-13T03:35:57.412320","NORAD_CAT_ID":"53863","OBJECT_NAME":"STARLINK-4788"},{"NORAD_CAT_ID":"53864","EPOCH":"2023-04-13T03:55:40.791648","CLASSIFICATION_TYPE":"U","SITE":"AFETR","LAUNCH_DATE":"2022-09-19","OBJECT_NAME":"STARLINK-4779","TLE_LINE2":"2 53864  53.2182   9.0618 0001107 101.8851 258.2266 15.08846805 32322","OBJECT_ID":"2022-114AY","DECAY_DATE":null,"SEMIMAJOR_AXIS":"6917.860","REV_AT_EPOCH":"3232","GP_ID":"230026278","TIME_SYSTEM":"UTC","MEAN_ANOMALY":"258.2266","APOAPSIS":"540.490","ECCENTRICITY":"0.00011070","REF_FRAME":"TEME","PERIAPSIS":"538.959","MEAN_MOTION":"15.08846805","TLE_LINE1":"1 53864U 22114AY  23103.16366657  .00003129  00000-0  21456-3 0  9991","RCS_SIZE":"LARGE","ARG_OF_PERICENTER":"101.8851","EPHEMERIS_TYPE":"0","MEAN_MOTION_DDOT":"0.0000000000000","FILE":"3886942","OBJECT_TYPE":"PAYLOAD","PERIOD":"95.437","INCLINATION":"53.2182","MEAN_MOTION_DOT":"0.00003129","MEAN_ELEMENT_THEORY":"SGP4","BSTAR":"0.00021456000000","COUNTRY_CODE":"US","CENTER_NAME":"EARTH","RA_OF_ASC_NODE":"9.0618","ELEMENT_SET_NO":"999"},{"FILE":"3886942","OBJECT_TYPE":"PAYLOAD","PERIOD":"95.437","INCLINATION":"53.2166","MEAN_MOTION_DOT":"0.00004022","MEAN_ELEMENT_THEORY":"SGP4","BSTAR":"0.00027062000000","COUNTRY_CODE":"US","CENTER_NAME":"EARTH","RA_OF_ASC_NODE":"9.4945","ELEMENT_SET_NO":"999","PERIAPSIS":"538.944","TLE_LINE1":"1 53865U 22114AZ  23103.11953616  .00004022  00000-0  27062-3 0  9996","RCS_SIZE":"LARGE","MEAN_MOTION":"15.08846962","ARG_OF_PERICENTER":"82.8302","EPHEMERIS_TYPE":"0","MEAN_MOTION_DDOT":"0.0000000000000","OBJECT_ID":"2022-114AZ","TLE_LINE2":"2 53865  53.2166   9.4945 0001127  82.8302 277.2818 15.08846962 32310","DECAY_DATE":null,"SEMIMAJOR_AXIS":"6917.859","GP_ID":"230026279","REV_AT_EPOCH":"3231","TIME_SYSTEM":"UTC","MEAN_ANOMALY":"277.2818","APOAPSIS":"540.504","ECCENTRICITY":"0.00011270","REF_FRAME":"TEME","NORAD_CAT_ID":"53865","EPOCH":"2023-04-13T02:52:07.924224","CLASSIFICATION_TYPE":"U","SITE":"AFETR","LAUNCH_DATE":"2022-09-19","OBJECT_NAME":"STARLINK-4785"}];
